[
    {
        "Altitude(m)": 624790.8286320398,
        "Argument of Periapsis(deg)": 0.0,
        "Eccentricity": 0.0,
        "Inclination(deg)": 60.0,
        "Latitude(deg)": -59.14721736415491,
        "Longitude(deg)": -38.96525780703987,
        "Mean Anomaly(deg)": -81.8182,
        "RAAN(deg)": 135.0,
        "Satellite Name": "Test1 611",
        "Satellite Number": 611,
        "Semi-Major Axis(m)": 6980739.136638005,
        "Time(s)": 0
    },
    {
        "Altitude(m)": 624737.4832628758,
        "Argument of Periapsis(deg)": 0.00010418945913296404,
        "Eccentricity": 0.0,
        "Inclination(deg)": 60.0,
        "Latitude(deg)": -58.99467089641333,
        "Longitude(deg)": -37.845753319694985,
        "Mean Anomaly(deg)": -81.19809385453816,
        "RAAN(deg)": 134.99957995086024,
        "Satellite Name": "Test1 611",
        "Satellite Number": 611,
        "Semi-Major Axis(m)": 6980739.136638005,
        "Time(s)": 10
    }
]